[{"OBJECT_NAME":"AETHER-4","OBJECT_ID":"2026-004N","EPOCH":"2026-03-09T23:25:23.871072","MEAN_MOTION":14.88037965,"ECCENTRICITY":0.00064882,"INCLINATION":97.8035,"RA_OF_ASC_NODE":69.2093,"ARG_OF_PERICENTER":90.2831,"MEAN_ANOMALY":269.9129,"EPHEMERIS_TYPE":0,"CLASSIFICATION_TYPE":"U","NORAD_CAT_ID":67375,"ELEMENT_SET_NO":999,"REV_AT_EPOCH":854,"BSTAR":0.00015024135,"MEAN_MOTION_DOT":1.326e-5,"MEAN_MOTION_DDOT":0},{"OBJECT_NAME":"DELTA 1 DEB","OBJECT_ID":"1975-004BL","EPOCH":"2026-03-09T16:53:17.012832","MEAN_MOTION":14.87505635,"ECCENTRICITY":0.00265153,"INCLINATION":97.7994,"RA_OF_ASC_NODE":141.7903,"ARG_OF_PERICENTER":181.1932,"MEAN_ANOMALY":178.9225,"EPHEMERIS_TYPE":0,"CLASSIFICATION_TYPE":"U","NORAD_CAT_ID":8978,"ELEMENT_SET_NO":999,"REV_AT_EPOCH":65253,"BSTAR":0.00032949434,"MEAN_MOTION_DOT":2.951e-5,"MEAN_MOTION_DDOT":0}]
